{"type": "FeatureCollection", "features": [{"type": "Feature", "properties": {"norad_id": 50032, "name": "COSMOS 1408 DEB", "group": "cosmos-1408-debris", "lat": -35.831150990128144, "lon": 50.14237379444163, "alt_km": 441.85257475487197, "timestamp": "2025-12-15T14:57:58.085379+00:00", "meta": {"OBJECT_NAME": "COSMOS 1408 DEB", "OBJECT_ID": "1982-092RU", "EPOCH": "2025-12-14T22:01:55.785792", "MEAN_MOTION": 15.45718692, "ECCENTRICITY": 0.00154417, "INCLINATION": 82.5645, "RA_OF_ASC_NODE": 56.2765, "ARG_OF_PERICENTER": 200.2524, "MEAN_ANOMALY": 159.8115, "EPHEMERIS_TYPE": 0, "CLASSIFICATION_TYPE": "U", "NORAD_CAT_ID": 50032, "ELEMENT_SET_NO": 999, "REV_AT_EPOCH": 22637, "BSTAR": 8.1338203e-05, "MEAN_MOTION_DOT": 3.987e-05, "MEAN_MOTION_DDOT": 0}, "tle": {"line1": "1 50032U 82092RU  25348.91800678  .00003987  00000+0  81338-4 0  9995", "line2": "2 50032  82.5645  56.2765 0015441 200.2524 159.8115 15.45718692226371"}}, "geometry": {"type": "Point", "coordinates": [50.14237379444163, -35.831150990128144]}}, {"type": "Feature", "properties": {"norad_id": 50058, "name": "COSMOS 1408 DEB", "group": "cosmos-1408-debris", "lat": -3.0712443675359564, "lon": 65.92435663157424, "alt_km": 379.17090329599705, "timestamp": "2025-12-15T14:57:58.085399+00:00", "meta": {"OBJECT_NAME": "COSMOS 1408 DEB", "OBJECT_ID": "1982-092SW", "EPOCH": "2025-12-14T15:57:00.095616", "MEAN_MOTION": 15.64237025, "ECCENTRICITY": 0.00162597, "INCLINATION": 82.6133, "RA_OF_ASC_NODE": 67.3271, "ARG_OF_PERICENTER": 92.5268, "MEAN_ANOMALY": 267.7853, "EPHEMERIS_TYPE": 0, "CLASSIFICATION_TYPE": "U", "NORAD_CAT_ID": 50058, "ELEMENT_SET_NO": 999, "REV_AT_EPOCH": 22834, "BSTAR": 0.00029284598, "MEAN_MOTION_DOT": 0.00028132, "MEAN_MOTION_DDOT": 0}, "tle": {"line1": "1 50058U 82092SW  25348.66458444  .00028132  00000+0  29285-3 0  9996", "line2": "2 50058  82.6133  67.3271 0016259  92.5268 267.7853 15.64237025228346"}}, "geometry": {"type": "Point", "coordinates": [65.92435663157424, -3.0712443675359564]}}, {"type": "Feature", "properties": {"norad_id": 50404, "name": "COSMOS 1408 DEB", "group": "cosmos-1408-debris", "lat": -50.13958541994141, "lon": -157.3644341079572, "alt_km": 588.2150604608223, "timestamp": "2025-12-15T14:57:58.085410+00:00", "meta": {"OBJECT_NAME": "COSMOS 1408 DEB", "OBJECT_ID": "1982-092ADS", "EPOCH": "2025-12-14T21:44:59.536896", "MEAN_MOTION": 15.14163346, "ECCENTRICITY": 0.01709143, "INCLINATION": 82.2038, "RA_OF_ASC_NODE": 212.815, "ARG_OF_PERICENTER": 191.4475, "MEAN_ANOMALY": 168.2852, "EPHEMERIS_TYPE": 0, "CLASSIFICATION_TYPE": "U", "NORAD_CAT_ID": 50404, "ELEMENT_SET_NO": 999, "REV_AT_EPOCH": 21226, "BSTAR": 0.0019184909, "MEAN_MOTION_DOT": 0.00050796, "MEAN_MOTION_DDOT": 0}, "tle": {"line1": "1 50404U 82092ADS 25348.90624464  .00050796  00000+0  19185-2 0  9993", "line2": "2 50404  82.2038 212.8150 0170914 191.4475 168.2852 15.14163346212269"}}, "geometry": {"type": "Point", "coordinates": [-157.3644341079572, -50.13958541994141]}}, {"type": "Feature", "properties": {"norad_id": 50621, "name": "COSMOS 1408 DEB", "group": "cosmos-1408-debris", "lat": -62.70145493148772, "lon": 56.53187676232045, "alt_km": 421.8119398843455, "timestamp": "2025-12-15T14:57:58.085421+00:00", "meta": {"OBJECT_NAME": "COSMOS 1408 DEB", "OBJECT_ID": "1982-092ALR", "EPOCH": "2025-12-14T20:43:44.246784", "MEAN_MOTION": 15.56785697, "ECCENTRICITY": 0.00289612, "INCLINATION": 82.5704, "RA_OF_ASC_NODE": 71.9692, "ARG_OF_PERICENTER": 144.6263, "MEAN_ANOMALY": 215.6921, "EPHEMERIS_TYPE": 0, "CLASSIFICATION_TYPE": "U", "NORAD_CAT_ID": 50621, "ELEMENT_SET_NO": 999, "REV_AT_EPOCH": 22283, "BSTAR": 0.0002813269, "MEAN_MOTION_DOT": 0.0002059, "MEAN_MOTION_DDOT": 0}, "tle": {"line1": "1 50621U 82092ALR 25348.86370656  .00020590  00000+0  28133-3 0  9993", "line2": "2 50621  82.5704  71.9692 0028961 144.6263 215.6921 15.56785697222830"}}, "geometry": {"type": "Point", "coordinates": [56.53187676232045, -62.70145493148772]}}]}